ICEYE-X45               
1 62705U 25009DA  26068.72395651  .00005708  00000+0  45353-3 0  9998
2 62705  97.8049 154.8158 0000884  73.7941 286.3380 15.00857928 62768
STARLINK-34608          
1 64810U 25150W   26068.58274847  .00002720  00000+0  23570-3 0  9999
2 64810  70.0020 134.6149 0003269 266.7801  93.2984 14.98326574 36506
